[
    {
        "CCSDS_OMM_VERS": "3.0",
        "COMMENT": "GENERATED VIA SPACE-TRACK.ORG API",
        "CREATION_DATE": "2024-08-10T22:46:31",
        "ORIGINATOR": "18 SPCS",
        "OBJECT_NAME": "FENGYUN 1C DEB",
        "OBJECT_ID": "1999-025WL",
        "CENTER_NAME": "EARTH",
        "REF_FRAME": "TEME",
        "TIME_SYSTEM": "UTC",
        "MEAN_ELEMENT_THEORY": "SGP4",
        "EPOCH": "2024-08-10T21:36:40.323744",
        "MEAN_MOTION": "14.96523772",
        "ECCENTRICITY": "0.00110920",
        "INCLINATION": "99.0427",
        "RA_OF_ASC_NODE": "201.0830",
        "ARG_OF_PERICENTER": "129.8842",
        "MEAN_ANOMALY": "291.6476",
        "EPHEMERIS_TYPE": "0",
        "CLASSIFICATION_TYPE": "U",
        "NORAD_CAT_ID": "30227",
        "ELEMENT_SET_NO": "999",
        "REV_AT_EPOCH": "91593",
        "BSTAR": "0.02139000000000",
        "MEAN_MOTION_DOT": "0.00252185",
        "MEAN_MOTION_DDOT": "0.0000000000000",
        "SEMIMAJOR_AXIS": "6955.784",
        "PERIOD": "96.223",
        "APOAPSIS": "585.364",
        "PERIAPSIS": "569.934",
        "OBJECT_TYPE": "DEBRIS",
        "RCS_SIZE": "SMALL",
        "COUNTRY_CODE": "PRC",
        "LAUNCH_DATE": "1999-05-10",
        "SITE": "TSC",
        "DECAY_DATE": null,
        "FILE": "4427498",
        "GP_ID": "264735896",
        "TLE_LINE0": "0 FENGYUN 1C DEB",
        "TLE_LINE1": "1 30227U 99025WL  24223.90046671  .00252185  00000-0  21390-1 0  9994",
        "TLE_LINE2": "2 30227  99.0427 201.0830 0011092 129.8842 291.6476 14.96523772915936"
    },
    {
        "CCSDS_OMM_VERS": "3.0",
        "COMMENT": "GENERATED VIA SPACE-TRACK.ORG API",
        "CREATION_DATE": "2024-08-10T22:46:31",
        "ORIGINATOR": "18 SPCS",
        "OBJECT_NAME": "CZ-4C R/B",
        "OBJECT_ID": "2009-072C",
        "CENTER_NAME": "EARTH",
        "REF_FRAME": "TEME",
        "TIME_SYSTEM": "UTC",
        "MEAN_ELEMENT_THEORY": "SGP4",
        "EPOCH": "2024-08-10T21:36:31.099680",
        "MEAN_MOTION": "13.46186809",
        "ECCENTRICITY": "0.01574660",
        "INCLINATION": "100.5042",
        "RA_OF_ASC_NODE": "209.9582",
        "ARG_OF_PERICENTER": "123.1738",
        "MEAN_ANOMALY": "303.7027",
        "EPHEMERIS_TYPE": "0",
        "CLASSIFICATION_TYPE": "U",
        "NORAD_CAT_ID": "36123",
        "ELEMENT_SET_NO": "999",
        "REV_AT_EPOCH": "72013",
        "BSTAR": "0.00011500000000",
        "MEAN_MOTION_DOT": "0.00000026",
        "MEAN_MOTION_DDOT": "0.0000000000000",
        "SEMIMAJOR_AXIS": "7464.458",
        "PERIOD": "106.969",
        "APOAPSIS": "1203.863",
        "PERIAPSIS": "968.783",
        "OBJECT_TYPE": "ROCKET BODY",
        "RCS_SIZE": "LARGE",
        "COUNTRY_CODE": "PRC",
        "LAUNCH_DATE": "2009-12-15",
        "SITE": "TSC",
        "DECAY_DATE": null,
        "FILE": "4427485",
        "GP_ID": "264735647",
        "TLE_LINE0": "0 CZ-4C R/B",
        "TLE_LINE1": "1 36123U 09072C   24223.90035995  .00000026  00000-0  11500-3 0  9994",
        "TLE_LINE2": "2 36123 100.5042 209.9582 0157466 123.1738 303.7027 13.46186809720139"
    },
    {
        "CCSDS_OMM_VERS": "3.0",
        "COMMENT": "GENERATED VIA SPACE-TRACK.ORG API",
        "CREATION_DATE": "2024-08-10T22:56:16",
        "ORIGINATOR": "18 SPCS",
        "OBJECT_NAME": "STARLINK-4261",
        "OBJECT_ID": "2022-062AQ",
        "CENTER_NAME": "EARTH",
        "REF_FRAME": "TEME",
        "TIME_SYSTEM": "UTC",
        "MEAN_ELEMENT_THEORY": "SGP4",
        "EPOCH": "2024-08-10T21:36:28.285632",
        "MEAN_MOTION": "15.08842340",
        "ECCENTRICITY": "0.00011520",
        "INCLINATION": "53.2149",
        "RA_OF_ASC_NODE": "88.9641",
        "ARG_OF_PERICENTER": "88.8878",
        "MEAN_ANOMALY": "271.2246",
        "EPHEMERIS_TYPE": "0",
        "CLASSIFICATION_TYPE": "U",
        "NORAD_CAT_ID": "52868",
        "ELEMENT_SET_NO": "999",
        "REV_AT_EPOCH": "11949",
        "BSTAR": "0.00045632000000",
        "MEAN_MOTION_DOT": "0.00006982",
        "MEAN_MOTION_DDOT": "0.0000000000000",
        "SEMIMAJOR_AXIS": "6917.873",
        "PERIOD": "95.437",
        "APOAPSIS": "540.535",
        "PERIAPSIS": "538.941",
        "OBJECT_TYPE": "PAYLOAD",
        "RCS_SIZE": "LARGE",
        "COUNTRY_CODE": "US",
        "LAUNCH_DATE": "2022-06-17",
        "SITE": "AFETR",
        "DECAY_DATE": null,
        "FILE": "4427652",
        "GP_ID": "264740411",
        "TLE_LINE0": "0 STARLINK-4261",
        "TLE_LINE1": "1 52868U 22062AQ  24223.90032738  .00006982  00000-0  45632-3 0  9994",
        "TLE_LINE2": "2 52868  53.2149  88.9641 0001152  88.8878 271.2246 15.08842340119490"
    },
    {
        "CCSDS_OMM_VERS": "3.0",
        "COMMENT": "GENERATED VIA SPACE-TRACK.ORG API",
        "CREATION_DATE": "2024-08-10T22:46:31",
        "ORIGINATOR": "18 SPCS",
        "OBJECT_NAME": "NUSAT-41 (C PAYNE-G)",
        "OBJECT_ID": "2023-084N",
        "CENTER_NAME": "EARTH",
        "REF_FRAME": "TEME",
        "TIME_SYSTEM": "UTC",
        "MEAN_ELEMENT_THEORY": "SGP4",
        "EPOCH": "2024-08-10T21:36:26.085024",
        "MEAN_MOTION": "15.26984447",
        "ECCENTRICITY": "0.00089810",
        "INCLINATION": "97.4818",
        "RA_OF_ASC_NODE": "342.0255",
        "ARG_OF_PERICENTER": "174.6934",
        "MEAN_ANOMALY": "185.4402",
        "EPHEMERIS_TYPE": "0",
        "CLASSIFICATION_TYPE": "U",
        "NORAD_CAT_ID": "56944",
        "ELEMENT_SET_NO": "999",
        "REV_AT_EPOCH": "6452",
        "BSTAR": "0.00109770000000",
        "MEAN_MOTION_DOT": "0.00029117",
        "MEAN_MOTION_DDOT": "0.0000000000000",
        "SEMIMAJOR_AXIS": "6862.970",
        "PERIOD": "94.304",
        "APOAPSIS": "490.999",
        "PERIAPSIS": "478.671",
        "OBJECT_TYPE": "PAYLOAD",
        "RCS_SIZE": "MEDIUM",
        "COUNTRY_CODE": "ARGN",
        "LAUNCH_DATE": "2023-06-12",
        "SITE": "AFWTR",
        "DECAY_DATE": null,
        "FILE": "4427523",
        "GP_ID": "264735257",
        "TLE_LINE0": "0 NUSAT-41 (C PAYNE-G)",
        "TLE_LINE1": "1 56944U 23084N   24223.90030191  .00029117  00000-0  10977-2 0  9997",
        "TLE_LINE2": "2 56944  97.4818 342.0255 0008981 174.6934 185.4402 15.26984447 64529"
    },
    {
        "CCSDS_OMM_VERS": "3.0",
        "COMMENT": "GENERATED VIA SPACE-TRACK.ORG API",
        "CREATION_DATE": "2024-08-10T22:46:31",
        "ORIGINATOR": "18 SPCS",
        "OBJECT_NAME": "KANOPUS-V 4",
        "OBJECT_ID": "2018-014B",
        "CENTER_NAME": "EARTH",
        "REF_FRAME": "TEME",
        "TIME_SYSTEM": "UTC",
        "MEAN_ELEMENT_THEORY": "SGP4",
        "EPOCH": "2024-08-10T21:36:17.424288",
        "MEAN_MOTION": "15.22363990",
        "ECCENTRICITY": "0.00022310",
        "INCLINATION": "97.3916",
        "RA_OF_ASC_NODE": "130.8301",
        "ARG_OF_PERICENTER": "95.5691",
        "MEAN_ANOMALY": "264.5800",
        "EPHEMERIS_TYPE": "0",
        "CLASSIFICATION_TYPE": "U",
        "NORAD_CAT_ID": "43181",
        "ELEMENT_SET_NO": "999",
        "REV_AT_EPOCH": "36197",
        "BSTAR": "0.00040497000000",
        "MEAN_MOTION_DOT": "0.00009281",
        "MEAN_MOTION_DDOT": "0.0000000000000",
        "SEMIMAJOR_AXIS": "6876.849",
        "PERIOD": "94.590",
        "APOAPSIS": "500.249",
        "PERIAPSIS": "497.180",
        "OBJECT_TYPE": "PAYLOAD",
        "RCS_SIZE": "LARGE",
        "COUNTRY_CODE": "CIS",
        "LAUNCH_DATE": "2018-02-01",
        "SITE": "VOSTO",
        "DECAY_DATE": null,
        "FILE": "4427426",
        "GP_ID": "264736912",
        "TLE_LINE0": "0 KANOPUS-V 4",
        "TLE_LINE1": "1 43181U 18014B   24223.90020167  .00009281  00000-0  40497-3 0  9996",
        "TLE_LINE2": "2 43181  97.3916 130.8301 0002231  95.5691 264.5800 15.22363990361974"
    },
    {
        "CCSDS_OMM_VERS": "3.0",
        "COMMENT": "GENERATED VIA SPACE-TRACK.ORG API",
        "CREATION_DATE": "2024-08-10T22:56:16",
        "ORIGINATOR": "18 SPCS",
        "OBJECT_NAME": "OBJECT B",
        "OBJECT_ID": "2022-023B",
        "CENTER_NAME": "EARTH",
        "REF_FRAME": "TEME",
        "TIME_SYSTEM": "UTC",
        "MEAN_ELEMENT_THEORY": "SGP4",
        "EPOCH": "2024-08-10T21:36:15.899328",
        "MEAN_MOTION": "15.18279519",
        "ECCENTRICITY": "0.00821240",
        "INCLINATION": "63.4498",
        "RA_OF_ASC_NODE": "45.2855",
        "ARG_OF_PERICENTER": "334.6431",
        "MEAN_ANOMALY": "25.0661",
        "EPHEMERIS_TYPE": "0",
        "CLASSIFICATION_TYPE": "U",
        "NORAD_CAT_ID": "51947",
        "ELEMENT_SET_NO": "999",
        "REV_AT_EPOCH": "13518",
        "BSTAR": "0.00180570000000",
        "MEAN_MOTION_DOT": "0.00040655",
        "MEAN_MOTION_DDOT": "0.0000000000000",
        "SEMIMAJOR_AXIS": "6889.177",
        "PERIOD": "94.844",
        "APOAPSIS": "567.619",
        "PERIAPSIS": "454.465",
        "OBJECT_TYPE": "UNKNOWN",
        "RCS_SIZE": "LARGE",
        "COUNTRY_CODE": "PRC",
        "LAUNCH_DATE": "2022-03-05",
        "SITE": "XSC",
        "DECAY_DATE": null,
        "FILE": "4427680",
        "GP_ID": "264741635",
        "TLE_LINE0": "0 OBJECT B",
        "TLE_LINE1": "1 51947U 22023B   24223.90018402  .00040655  00000-0  18057-2 0  9995",
        "TLE_LINE2": "2 51947  63.4498  45.2855 0082124 334.6431  25.0661 15.18279519135188"
    }
]